QIANFAN-105             
1 66047U 25233Q   26015.13227982  .00000114  00000+0  81039-4 0  9996
2 66047  88.9932  58.4976 0013547 301.6738  58.3114 13.90528770 12637
QIANFAN-106             
1 66048U 25233R   26015.10215390  .00000069  00000+0  90249-4 0  9996
2 66048  88.9916  58.6847 0012848 298.6704  61.3154 13.50172782 12520
QIANFAN-107             
1 66049U 25233S   26015.11074558  .00000054  00000+0  65480-4 0  9990
2 66049  88.9932  58.6917 0004463 310.6653  49.4110 13.50990128 12520
QIANFAN-108             
1 66050U 25233T   26015.11293886  .00000065  00000+0  83821-4 0  9990
2 66050  88.9924  58.6900 0012410 304.3570  55.6406 13.49662821 12525
